NORAD_CAT_ID,OBJECT_NAME,OBJECT_TYPE,EPOCH,MEAN_MOTION,ECCENTRICITY,INCLINATION,RA_OF_ASC_NODE,ARG_OF_PERICENTER,MEAN_ANOMALY,BSTAR,MEAN_MOTION_DOT,MEAN_MOTION_DDOT,TLE_LINE0,TLE_LINE1,TLE_LINE2,SEMIMAJOR_AXIS,PERIOD,APOGEE,PERIGEE,DECAYED
53789.0,STARLINK-4666,PAYLOAD,2024-08-14 12:45:25,15.08846619,0.0001534,53.2153,322.3609,93.0537,267.063,0.00055612,8.575e-05,0.0,0 STARLINK-4666,1 53789U 22111S   24227.53154600  .00008575  00000-0  55612-3 0  9997,2 53789  53.2153 322.3609 0001534  93.0537 267.0630 15.08846619106513,6917.86,95.437,540.786,538.664,0.0
53789.0,STARLINK-4666,PAYLOAD,2024-08-14 17:31:34,15.0885736,0.0001662,53.2163,321.4653,104.6891,255.4286,0.00063624,9.857e-05,0.0,0 STARLINK-4666,1 53789U 22111S   24227.73026001  .00009857  00000-0  63624-3 0  9998,2 53789  53.2163 321.4653 0001662 104.6891 255.4286 15.08857360107342,6917.827,95.436,540.842,538.543,0.0
53789.0,STARLINK-4666,PAYLOAD,2024-08-14 23:53:06,15.0886108,0.000163,53.2165,320.2766,103.1832,256.9342,0.00038465,5.842e-05,0.0,0 STARLINK-4666,1 53789U 22111S   24227.99521221  .00005842  00000-0  38465-3 0  9995,2 53789  53.2165 320.2766 0001630 103.1832 256.9342 15.08861080106588,6917.816,95.436,540.809,538.553,0.0
53789.0,STARLINK-4666,PAYLOAD,2024-08-15 12:36:13,15.08829008,0.0001439,53.2167,317.8987,119.0267,241.0869,0.00034281,5.17e-05,0.0,0 STARLINK-4666,1 53789U 22111S   24228.52515161  .00005170  00000-0  34281-3 0  9997,2 53789  53.2167 317.8987 0001439 119.0267 241.0869 15.08829008107463,6917.914,95.438,540.774,538.783,0.0
53789.0,STARLINK-4666,PAYLOAD,2024-08-15 17:22:20,15.08879057,0.0002448,53.2152,317.0085,109.0928,251.033,0.0013202,0.00020808,0.0,0 STARLINK-4666,1 53789U 22111S   24228.72384670  .00020808  00000-0  13202-2 0  9992,2 53789  53.2152 317.0085 0002448 109.0928 251.0330 15.08879057107498,6917.761,95.435,541.319,537.933,0.0
53789.0,STARLINK-4666,PAYLOAD,2024-08-16 09:16:10,15.08884994,0.0001695,53.2146,314.0344,113.5256,246.5915,0.00031576,4.747e-05,0.0,0 STARLINK-4666,1 53789U 22111S   24229.38622755  .00004747  00000-0  31576-3 0  9993,2 53789  53.2146 314.0344 0001695 113.5256 246.5915 15.08884994106799,6917.743,95.435,540.78,538.435,0.0
53789.0,STARLINK-4666,PAYLOAD,2024-08-17 05:56:13,15.08826228,0.0001254,53.2158,310.1664,94.2352,265.8783,-0.00044008,-7.282e-05,0.0,0 STARLINK-4666,1 53789U 22111S   24230.24737325 -.00007282  00000-0 -44008-3 0  9993,2 53789  53.2158 310.1664 0001254  94.2352 265.8783 15.08826228106925,6917.922,95.438,540.655,538.92,0.0
53789.0,STARLINK-4666,PAYLOAD,2024-08-18 05:47:00,15.08841028,0.0001013,53.2173,305.7082,94.519,265.5917,-0.00018976,-3.307e-05,0.0,0 STARLINK-4666,1 53789U 22111S   24231.24097521 -.00003307  00000-0 -18976-3 0  9990,2 53789  53.2173 305.7082 0001013  94.5190 265.5917 15.08841028107878,6917.877,95.437,540.443,539.041,0.0
53789.0,STARLINK-4666,PAYLOAD,2024-08-18 12:08:32,15.0883205,0.0001269,53.2166,304.5144,99.3251,260.7885,0.00034071,5.137e-05,0.0,0 STARLINK-4666,1 53789U 22111S   24231.50593130  .00005137  00000-0  34071-3 0  9991,2 53789  53.2166 304.5144 0001269  99.3251 260.7885 15.08832050107113,6917.905,95.438,540.648,538.892,0.0
53789.0,STARLINK-4666,PAYLOAD,2024-08-18 15:19:18,15.08832941,0.0001284,53.2171,303.921,69.6634,290.4496,0.00032343,4.862e-05,0.0,0 STARLINK-4666,1 53789U 22111S   24231.63841354  .00004862  00000-0  32343-3 0  9993,2 53789  53.2171 303.9210 0001284  69.6634 290.4496 15.08832941107935,6917.902,95.438,540.655,538.879,0.0
53789.0,STARLINK-4666,PAYLOAD,2024-08-19 10:23:57,15.08824925,0.0001765,53.2173,300.3487,136.4505,223.6627,0.00021291,3.101e-05,0.0,0 STARLINK-4666,1 53789U 22111S   24232.43330740  .00003101  00000-0  21291-3 0  9999,2 53789  53.2173 300.3487 0001765 136.4505 223.6627 15.08824925107250,6917.926,95.439,541.012,538.57,0.0
53789.0,STARLINK-4666,PAYLOAD,2024-08-19 13:34:44,15.08820674,0.0001194,53.217,299.7613,97.615,262.4978,0.0001986,2.873e-05,0.0,0 STARLINK-4666,1 53789U 22111S   24232.56579480  .00002873  00000-0  19860-3 0  9993,2 53789  53.2170 299.7613 0001194  97.6150 262.4978 15.08820674108077,6917.939,95.439,540.63,538.978,0.0
53789.0,STARLINK-4666,PAYLOAD,2024-08-20 11:50:07,15.08846034,0.0001231,53.2162,295.5989,85.0224,275.0909,8.5938e-05,1.08e-05,0.0,0 STARLINK-4666,1 53789U 22111S   24233.49314447  .00001080  00000-0  85938-4 0  9995,2 53789  53.2162 295.5989 0001231  85.0224 275.0909 15.08846034107412,6917.862,95.437,540.579,538.875,0.0
53789.0,STARLINK-4666,PAYLOAD,2024-08-21 11:40:55,15.08839576,0.000119,53.2156,291.1383,76.407,283.7055,0.00015791,2.226e-05,0.0,0 STARLINK-4666,1 53789U 22111S   24234.48674920  .00002226  00000-0  15791-3 0  9992,2 53789  53.2156 291.1383 0001190  76.4070 283.7055 15.08839576107569,6917.882,95.438,540.57,538.923,0.0
